OBJECT_NAME,OBJECT_ID,EPOCH,MEAN_MOTION,ECCENTRICITY,INCLINATION,RA_OF_ASC_NODE,ARG_OF_PERICENTER,MEAN_ANOMALY,EPHEMERIS_TYPE,CLASSIFICATION_TYPE,NORAD_CAT_ID,ELEMENT_SET_NO,REV_AT_EPOCH,BSTAR,MEAN_MOTION_DOT,MEAN_MOTION_DDOT
CUTE-1 (CO-55),2003-031E,2026-05-20T06:56:12.520320,14.24316564,.0008286,98.6744,149.1989,266.0889,93.9343,0,U,27844,999,18770,.9537813E-4,.176E-5,0
CUBESAT XI-IV (CO-57),2003-031J,2026-05-19T23:34:38.436384,14.23604015,.00082491,98.6775,148.6313,288.4861,71.5421,0,U,27848,999,18736,.79313937E-4,.137E-5,0
CUBESAT XI-V,2005-043F,2026-05-19T09:19:42.308832,14.72545772,.00128675,98.2953,294.4126,299.2337,60.7582,0,U,28895,999,9751,.1252552E-3,.744E-5,0
CUTE-1.7+APD II (CO-65),2008-021C,2026-05-20T04:55:17.809536,15.09154477,.00106434,97.8273,121.0514,118.5011,241.7290,0,U,32785,999,98097,.20278719E-3,.3156E-4,0
CANX-2,2008-021H,2026-05-20T04:10:17.376672,15.05385874,.00115506,97.8620,119.4156,132.9163,227.3034,0,U,32790,999,98059,.15006648E-3,.2089E-4,0
SEEDS II (CO-66),2008-021J,2026-05-20T05:59:40.583328,15.31692348,.00046994,97.7526,136.8379,69.9193,290.2553,0,U,32791,999,98301,.43542616E-3,.13255E-3,0
SWISSCUBE,2009-051B,2026-05-20T04:26:56.858784,14.62420263,.00057321,98.4054,47.5847,309.0564,51.0126,0,U,35932,999,88506,.13359782E-3,.626E-5,0
BEESAT-1,2009-051C,2026-05-20T04:19:40.899936,14.61668553,.00045254,98.3982,47.2734,328.5658,31.5271,0,U,35933,999,88509,.11584015E-3,.527E-5,0
ITUPSAT1,2009-051E,2026-05-20T05:09:58.606560,14.60392885,.00069314,98.4067,46.5303,335.9676,24.1199,0,U,35935,999,88465,.11096773E-3,.488E-5,0
TISAT 1,2010-035E,2026-05-20T06:38:33.080064,15.30531776,.00028365,98.0704,84.3786,39.7251,320.4195,0,U,36799,999,86343,.49486526E-3,.14536E-3,0
AEROCUBE 4.5A,2012-048K,2026-05-20T07:19:01.009056,15.79738813,.00182393,64.6285,127.6115,215.9677,144.0251,0,U,38767,999,36823,.77367283E-3,.146634E-2,0
STRAND-1,2013-009E,2026-05-20T04:58:16.553856,14.37144735,.00077755,98.3917,321.1315,321.3911,38.6719,0,U,39090,999,69304,.66314772E-4,.154E-5,0
BRITE-AUSTRIA,2013-009F,2026-05-20T06:39:48.104640,14.36529701,.00094804,98.3988,320.4053,329.7522,30.3116,0,U,39091,999,69304,.4893899E-4,.101E-5,0
NEE-01 PEGASO,2013-018B,2026-05-19T22:14:57.488064,14.93502115,.0011372,98.1188,283.1528,255.2186,104.7773,0,U,39151,999,70648,.1513E-3,.1532E-4,0
POPACS 2,2013-055E,2026-05-20T01:18:42.139296,14.90546730,.04184819,80.9910,176.3822,284.2877,71.2218,0,U,39269,999,65902,.19436586E-3,.11304E-3,0
POPACS 3,2013-055F,2026-05-19T14:17:31.920576,14.55402350,.05547226,81.0018,260.1669,156.9410,205.7769,0,U,39270,999,63439,.29805989E-3,.12545E-3,0
ZACUBE-1 (TSHEPISOSAT),2013-066B,2026-05-20T03:26:32.568864,15.00950381,.00409301,97.8124,102.3287,346.9906,13.0258,0,U,39417,999,67652,.24410422E-3,.3103E-4,0
WNISAT-1,2013-066H,2026-05-20T06:43:31.588608,14.58022857,.01621818,97.7168,291.4226,320.1927,38.7465,0,U,39423,999,66266,.63456541E-4,.298E-5,0
TRITON-1,2013-066M,2026-05-20T06:27:34.604928,14.81573723,.00894559,97.8267,50.7124,326.3866,33.1691,0,U,39427,999,66995,.20046695E-3,.1628E-4,0
GOMX-1,2013-066Q,2026-05-20T06:23:25.101600,14.69334990,.01290567,97.6495,342.4900,166.5098,193.9613,0,U,39430,999,66581,.17427511E-3,.1118E-4,0
CUBEBUG-2 (LO-74),2013-066AA,2026-05-20T06:16:42.076704,14.93518538,.00593508,97.8896,89.1307,119.2047,241.5127,0,U,39440,999,67282,.23345001E-3,.2483E-4,0
NEE-02 KRYSAOR,2013-066AB,2026-05-20T06:36:10.803456,14.86498140,.00666747,97.8886,79.6941,159.9802,200.4053,0,U,39441,999,67205,.11999722E-3,.1046E-4,0
FUNCUBE-1 (AO-73),2013-066AE,2026-05-19T21:07:13.054944,15.09086227,.00348521,97.8266,110.7464,301.7800,58.0035,0,U,39444,999,67539,.33982096E-3,.5392E-4,0
UWE-3,2013-066AG,2026-05-19T20:57:05.279328,14.96754231,.00504162,97.8681,95.7656,55.1859,305.4090,0,U,39446,999,67334,.25518464E-3,.2931E-4,0
BRITE-CA1 (TORONTO),2014-033L,2026-05-20T07:35:18.042720,14.72634211,.00787246,97.9701,269.7647,7.1930,353.0388,0,U,40020,999,63811,.68904928E-4,.407E-5,0
DUCHIFAT-1,2014-033M,2026-05-20T02:03:58.063680,15.59142143,.00062637,98.0490,195.4268,168.4581,191.6819,0,U,40021,999,65136,.82603908E-3,.64942E-3,0
NANOSATC-BR1,2014-033Q,2026-05-20T00:50:59.229600,15.30471492,.00016485,98.0738,169.9486,278.4852,81.6200,0,U,40024,999,64967,.44910049E-3,.13156E-3,0
QB50P1,2014-033R,2026-05-20T00:05:20.865408,15.17775159,.00076437,98.0974,149.1842,333.1747,26.9089,0,U,40025,999,64875,.27036882E-3,.5389E-4,0
QB50P2,2014-033Y,2026-05-20T05:27:04.195296,15.14757650,.00056505,98.0754,135.3773,270.8259,89.2324,0,U,40032,999,64843,.22771451E-3,.4149E-4,0
PERSEUS-M2,2014-033AD,2026-05-20T07:05:28.804992,14.95418318,.0013193,97.9968,90.2739,38.2490,321.9663,0,U,40037,999,64661,.11950636E-3,.1261E-4,0
