CUTE-1 (CO-55)          
1 27844U 03031E   26140.28903380  .00000176  00000+0  95378-4 0  9997
2 27844  98.6744 149.1989 0008286 266.0889  93.9343 14.24316564187709
CUBESAT XI-IV (CO-57)   
1 27848U 03031J   26139.98238931  .00000137  00000+0  79314-4 0  9998
2 27848  98.6775 148.6313 0008249 288.4861  71.5421 14.23604015187360
CUBESAT XI-V            
1 28895U 05043F   26139.38868413  .00000744  00000+0  12526-3 0  9999
2 28895  98.2953 294.4126 0012867 299.2337  60.7582 14.72545772 97511
CUTE-1.7+APD II (CO-65) 
1 32785U 08021C   26140.20506724  .00003156  00000+0  20279-3 0  9992
2 32785  97.8273 121.0514 0010643 118.5011 241.7290 15.09154477980979
CANX-2                  
1 32790U 08021H   26140.17381223  .00002089  00000+0  15007-3 0  9996
2 32790  97.8620 119.4156 0011550 132.9163 227.3034 15.05385874980597
SEEDS II (CO-66)        
1 32791U 08021J   26140.24977527  .00013255  00000+0  43543-3 0  9996
2 32791  97.7526 136.8379 0004699  69.9193 290.2553 15.31692348983011
SWISSCUBE               
1 35932U 09051B   26140.18538031  .00000626  00000+0  13360-3 0  9998
2 35932  98.4054  47.5847 0005732 309.0564  51.0126 14.62420263885065
BEESAT-1                
1 35933U 09051C   26140.18033449  .00000527  00000+0  11584-3 0  9998
2 35933  98.3982  47.2734 0004525 328.5658  31.5271 14.61668553885098
ITUPSAT1                
1 35935U 09051E   26140.21526165  .00000488  00000+0  11097-3 0  9991
2 35935  98.4067  46.5303 0006931 335.9676  24.1199 14.60392885884653
TISAT 1                 
1 36799U 10035E   26140.27677176  .00014536  00000+0  49487-3 0  9992
2 36799  98.0704  84.3786 0002836  39.7251 320.4195 15.30531776863432
AEROCUBE 4.5A           
1 38767U 12048K   26140.30487279  .00146634  00000+0  77367-3 0  9995
2 38767  64.6285 127.6115 0018239 215.9677 144.0251 15.79738813368238
STRAND-1                
1 39090U 13009E   26140.20713604  .00000154  00000+0  66315-4 0  9994
2 39090  98.3917 321.1315 0007775 321.3911  38.6719 14.37144735693047
BRITE-AUSTRIA           
1 39091U 13009F   26140.27764010  .00000101  00000+0  48939-4 0  9993
2 39091  98.3988 320.4053 0009480 329.7522  30.3116 14.36529701693041
NEE-01 PEGASO           
1 39151U 13018B   26139.92705426  .00001532  00000+0  15130-3 0  9991
2 39151  98.1188 283.1528 0011372 255.2186 104.7773 14.93502115706483
POPACS 2                
1 39269U 13055E   26140.05465439  .00011304  00000+0  19437-3 0  9997
2 39269  80.9910 176.3822 0418481 284.2877  71.2218 14.90546730659023
POPACS 3                
1 39270U 13055F   26139.59550834  .00012545  00000+0  29806-3 0  9999
2 39270  81.0018 260.1669 0554722 156.9410 205.7769 14.55402350634392
ZACUBE-1 (TSHEPISOSAT)  
1 39417U 13066B   26140.14343251  .00003103  00000+0  24410-3 0  9996
2 39417  97.8124 102.3287 0040930 346.9906  13.0258 15.00950381676520
WNISAT-1                
1 39423U 13066H   26140.28022672  .00000298  00000+0  63457-4 0  9996
2 39423  97.7168 291.4226 0162181 320.1927  38.7465 14.58022857662661
TRITON-1                
1 39427U 13066M   26140.26915052  .00001628  00000+0  20047-3 0  9996
2 39427  97.8267  50.7124 0089455 326.3866  33.1691 14.81573723669959
GOMX-1                  
1 39430U 13066Q   26140.26626275  .00001118  00000+0  17428-3 0  9999
2 39430  97.6495 342.4900 0129056 166.5098 193.9613 14.69334990665817
CUBEBUG-2 (LO-74)       
1 39440U 13066AA  26140.26159811  .00002483  00000+0  23345-3 0  9998
2 39440  97.8896  89.1307 0059350 119.2047 241.5127 14.93518538672827
NEE-02 KRYSAOR          
1 39441U 13066AB  26140.27512504  .00001046  00000+0  12000-3 0  9992
2 39441  97.8886  79.6941 0066674 159.9802 200.4053 14.86498140672057
FUNCUBE-1 (AO-73)       
1 39444U 13066AE  26139.88001221  .00005392  00000+0  33982-3 0  9999
2 39444  97.8266 110.7464 0034852 301.7800  58.0035 15.09086227675399
UWE-3                   
1 39446U 13066AG  26139.87297777  .00002931  00000+0  25518-3 0  9995
2 39446  97.8681  95.7656 0050416  55.1859 305.4090 14.96754231673340
BRITE-CA1 (TORONTO)     
1 40020U 14033L   26140.31618105  .00000407  00000+0  68905-4 0  9997
2 40020  97.9701 269.7647 0078724   7.1930 353.0388 14.72634211638110
DUCHIFAT-1              
1 40021U 14033M   26140.08608870  .00064942  00000+0  82604-3 0  9995
2 40021  98.0490 195.4268 0006263 168.4581 191.6819 15.59142143651365
NANOSATC-BR1            
1 40024U 14033Q   26140.03540775  .00013156  00000+0  44910-3 0  9991
2 40024  98.0738 169.9486 0001648 278.4852  81.6200 15.30471492649670
QB50P1                  
1 40025U 14033R   26140.00371372  .00005389  00000+0  27037-3 0  9994
2 40025  98.0974 149.1842 0007643 333.1747  26.9089 15.17775159648759
QB50P2                  
1 40032U 14033Y   26140.22713189  .00004149  00000+0  22771-3 0  9995
2 40032  98.0754 135.3773 0005650 270.8259  89.2324 15.14757650648436
PERSEUS-M2              
1 40037U 14033AD  26140.29547228  .00001261  00000+0  11951-3 0  9996
2 40037  97.9968  90.2739 0013193  38.2490 321.9663 14.95418318646614
